NORAD_CAT_ID,OBJECT_NAME,OBJECT_TYPE,EPOCH,MEAN_MOTION,ECCENTRICITY,INCLINATION,RA_OF_ASC_NODE,ARG_OF_PERICENTER,MEAN_ANOMALY,BSTAR,MEAN_MOTION_DOT,MEAN_MOTION_DDOT,TLE_LINE0,TLE_LINE1,TLE_LINE2,SEMIMAJOR_AXIS,PERIOD,APOGEE,PERIGEE,DECAYED
56463.0,STARLINK-6051,PAYLOAD,2024-04-23 07:57:15,14.98338273,0.0002667,70.0016,72.5784,253.9947,106.0919,0.0001225,1.369e-05,0.0,0 STARLINK-6051,1 56463U 23064R   24114.33142853  .00001369  00000-0  12250-3 0  9992,2 56463  70.0016  72.5784 0002667 253.9947 106.0919 14.98338273 52587,6950.167,96.106,573.886,570.179,0.0
56463.0,STARLINK-6051,PAYLOAD,2024-04-23 20:46:23,14.98276329,0.000237,70.0024,71.2301,264.3264,95.7625,-0.0010939,-0.00013102,0.0,0 STARLINK-6051,1 56463U 23064R   24114.86555230 -.00013102  00000-0 -10939-2 0  9998,2 56463  70.0024  71.2301 0002370 264.3264  95.7625 14.98276329 53027,6950.359,96.11,573.871,570.577,0.0
56463.0,STARLINK-6051,PAYLOAD,2024-04-23 22:22:29,14.98338856,0.0002344,70.0025,71.0618,243.0923,116.9996,0.00017977,2.053e-05,0.0,0 STARLINK-6051,1 56463U 23064R   24114.93228406  .00002053  00000-0  17977-3 0  9999,2 56463  70.0025  71.0618 0002344 243.0923 116.9996 14.98338856 52675,6950.166,96.106,573.66,570.401,0.0
56463.0,STARLINK-6051,PAYLOAD,2024-04-24 03:10:54,14.98329506,0.0002313,70.0054,70.56,211.828,148.274,0.00031987,3.726e-05,0.0,0 STARLINK-6051,1 56463U 23064R   24115.13257222  .00003726  00000-0  31987-3 0  9995,2 56463  70.0054  70.5600 0002313 211.8280 148.2740 14.98329506 53068,6950.194,96.107,573.667,570.452,0.0
56463.0,STARLINK-6051,PAYLOAD,2024-04-24 06:23:10,14.98334137,0.0002523,70.0025,70.2201,253.225,106.8632,0.00048081,5.649e-05,0.0,0 STARLINK-6051,1 56463U 23064R   24115.26608925  .00005649  00000-0  48081-3 0  9998,2 56463  70.0025  70.2201 0002523 253.2250 106.8632 14.98334137 52728,6950.18,96.107,573.799,570.292,0.0
56463.0,STARLINK-6051,PAYLOAD,2024-04-24 22:24:30,14.98345287,0.0002818,70.0021,68.5365,259.7831,100.301,0.00089133,0.00010562,0.0,0 STARLINK-6051,1 56463U 23064R   24115.93368265  .00010562  00000-0  89133-3 0  9995,2 56463  70.0021  68.5365 0002818 259.7831 100.3010 14.98345287 52826,6950.146,96.106,573.969,570.052,0.0
56463.0,STARLINK-6051,PAYLOAD,2024-04-25 04:49:02,14.98356368,0.0002649,70.0027,67.8646,255.711,104.3755,0.0010356,0.00012294,0.0,0 STARLINK-6051,1 56463U 23064R   24116.20071886  .00012294  00000-0  10356-2 0  9990,2 56463  70.0027  67.8646 0002649 255.7110 104.3755 14.98356368 53221,6950.111,96.105,573.817,570.135,0.0
56463.0,STARLINK-6051,PAYLOAD,2024-04-25 06:25:09,14.98359145,0.0002873,70.0022,67.6957,263.5975,96.4857,0.0011021,0.00013092,0.0,0 STARLINK-6051,1 56463U 23064R   24116.26747538  .00013092  00000-0  11021-2 0  9997,2 56463  70.0022  67.6957 0002873 263.5975  96.4857 14.98359145 52874,6950.103,96.105,573.965,569.971,0.0
56463.0,STARLINK-6051,PAYLOAD,2024-04-25 20:50:22,14.98361187,0.0001581,70.0049,66.1839,271.6111,88.4867,0.00036174,4.229e-05,0.0,0 STARLINK-6051,1 56463U 23064R   24116.86831174  .00004229  00000-0  36174-3 0  9992,2 56463  70.0049  66.1839 0001581 271.6111  88.4867 14.98361187 53325,6950.096,96.105,573.06,570.863,0.0
56463.0,STARLINK-6051,PAYLOAD,2024-04-25 22:26:29,14.98356304,0.0002753,70.0019,66.013,269.8328,90.2516,0.00011587,1.291e-05,0.0,0 STARLINK-6051,1 56463U 23064R   24116.93506905  .00001291  00000-0  11587-3 0  9998,2 56463  70.0019  66.0130 0002753 269.8328  90.2516 14.98356304 52973,6950.112,96.105,573.89,570.063,0.0
56463.0,STARLINK-6051,PAYLOAD,2024-04-26 04:51:02,14.98349095,0.0002669,70.0033,65.342,259.5004,100.5854,-6.4503e-05,-8.63e-06,0.0,0 STARLINK-6051,1 56463U 23064R   24117.20210767 -.00000863  00000-0 -64503-4 0  9990,2 56463  70.0033  65.3420 0002669 259.5004 100.5854 14.98349095 53370,6950.134,96.106,573.854,570.144,0.0
56463.0,STARLINK-6051,PAYLOAD,2024-04-26 06:27:10,14.98351035,0.0002859,70.0021,65.1717,265.0933,94.99,5.0458e-05,5.09e-06,0.0,0 STARLINK-6051,1 56463U 23064R   24117.26886699  .00000509  00000-0  50458-4 0  9998,2 56463  70.0021  65.1717 0002859 265.0933  94.9900 14.98351035 53025,6950.128,96.106,573.98,570.006,0.0
56463.0,STARLINK-6051,PAYLOAD,2024-04-26 20:52:22,14.98345601,0.000281,70.0028,63.6573,265.6155,94.4683,-0.00016467,-2.058e-05,0.0,0 STARLINK-6051,1 56463U 23064R   24117.86970107 -.00002058  00000-0 -16467-3 0  9996,2 56463  70.0028  63.6573 0002810 265.6155  94.4683 14.98345601 53119,6950.145,96.106,573.963,570.057,0.0
56463.0,STARLINK-6051,PAYLOAD,2024-04-27 04:53:01,14.9835676,0.0002764,70.0013,62.8164,259.2267,100.8581,5.388e-06,-2.9e-07,0.0,0 STARLINK-6051,1 56463U 23064R   24118.20349463 -.00000029  00000-0  53880-5 0  9997,2 56463  70.0013  62.8164 0002764 259.2267 100.8581 14.98356760 53523,6950.11,96.105,573.896,570.054,0.0
56463.0,STARLINK-6051,PAYLOAD,2024-04-27 06:29:09,14.98354183,0.0002653,70.0028,62.6481,258.3828,101.7033,1.883e-05,1.32e-06,0.0,0 STARLINK-6051,1 56463U 23064R   24118.27025277  .00000132  00000-0  18830-4 0  9997,2 56463  70.0028  62.6481 0002653 258.3828 101.7033 14.98354183 53179,6950.118,96.105,573.827,570.139,0.0
56463.0,STARLINK-6051,PAYLOAD,2024-04-27 20:54:23,14.98324836,0.0002583,70.0026,61.1316,263.1649,96.9217,-0.00013519,-1.705e-05,0.0,0 STARLINK-6051,1 56463U 23064R   24118.87110704 -.00001705  00000-0 -13519-3 0  9990,2 56463  70.0026  61.1316 0002583 263.1649  96.9217 14.98324836 53626,6950.209,96.107,573.869,570.279,0.0
56463.0,STARLINK-6051,PAYLOAD,2024-04-27 22:30:31,14.98324385,0.0002518,70.0026,60.9642,258.5753,101.5123,-0.00013137,-1.66e-05,0.0,0 STARLINK-6051,1 56463U 23064R   24118.93786737 -.00001660  00000-0 -13137-3 0  9998,2 56463  70.0026  60.9642 0002518 258.5753 101.5123 14.98324385 53276,6950.21,96.107,573.825,570.325,0.0
56463.0,STARLINK-6051,PAYLOAD,2024-04-28 12:55:44,14.98327596,0.0002823,70.0003,59.4489,260.6169,99.4671,-4.5443e-06,-1.47e-06,0.0,0 STARLINK-6051,1 56463U 23064R   24119.53871025 -.00000147  00000-0 -45443-5 0  9996,2 56463  70.0003  59.4489 0002823 260.6169  99.4671 14.98327596 53367,6950.2,96.107,574.027,570.103,0.0
56463.0,STARLINK-6051,PAYLOAD,2024-04-28 20:56:24,14.98333257,0.0003209,69.9994,58.6059,271.3788,88.7003,1.4331e-05,7.8e-07,0.0,0 STARLINK-6051,1 56463U 23064R   24119.87250678  .00000078  00000-0  14331-4 0  9990,2 56463  69.9994  58.6059 0003209 271.3788  88.7003 14.98333257 53778,6950.183,96.107,574.278,569.818,0.0
56463.0,STARLINK-6051,PAYLOAD,2024-04-28 22:32:32,14.98336721,0.0003006,69.9997,58.4374,269.404,90.6775,2.7324e-05,2.33e-06,0.0,0 STARLINK-6051,1 56463U 23064R   24119.93926454  .00000233  00000-0  27324-4 0  9998,2 56463  69.9997  58.4374 0003006 269.4040  90.6775 14.98336721 53422,6950.172,96.107,574.126,569.948,0.0
56463.0,STARLINK-6051,PAYLOAD,2024-04-29 12:57:44,14.98337888,0.0002893,70.0012,56.9227,271.8166,88.2661,0.00017265,1.968e-05,0.0,0 STARLINK-6051,1 56463U 23064R   24120.54010243  .00001968  00000-0  17265-3 0  9995,2 56463  70.0012  56.9227 0002893 271.8166  88.2661 14.98337888 53514,6950.168,96.106,574.044,570.023,0.0
56463.0,STARLINK-6051,PAYLOAD,2024-04-29 20:58:25,14.98330725,0.0002702,70.0013,56.0811,273.9899,86.0951,0.00033813,3.944e-05,0.0,0 STARLINK-6051,1 56463U 23064R   24120.87390814  .00003944  00000-0  33813-3 0  9999,2 56463  70.0013  56.0811 0002702 273.9899  86.0951 14.98330725 53926,6950.191,96.107,573.934,570.178,0.0
56463.0,STARLINK-6051,PAYLOAD,2024-04-29 22:34:33,14.98331794,0.0002763,70.0017,55.9132,273.2923,86.792,0.00025423,2.942e-05,0.0,0 STARLINK-6051,1 56463U 23064R   24120.94066738  .00002942  00000-0  25423-3 0  9997,2 56463  70.0017  55.9132 0002763 273.2923  86.7920 14.98331794 53573,6950.187,96.107,573.973,570.132,0.0
56463.0,STARLINK-6051,PAYLOAD,2024-04-30 12:59:46,14.98335289,0.0002595,70.0024,54.3986,275.3092,84.7771,0.00016208,1.842e-05,0.0,0 STARLINK-6051,1 56463U 23064R   24121.54150543  .00001842  00000-0  16208-3 0  9991,2 56463  70.0024  54.3986 0002595 275.3092  84.7771 14.98335289 53669,6950.177,96.107,573.845,570.238,0.0
56463.0,STARLINK-6051,PAYLOAD,2024-04-30 21:00:26,14.98338648,0.0002707,70.0021,53.5569,273.2942,86.7907,0.00022747,2.623e-05,0.0,0 STARLINK-6051,1 56463U 23064R   24121.87530261  .00002623  00000-0  22747-3 0  9999,2 56463  70.0021  53.5569 0002707 273.2942  86.7907 14.98338648 54071,6950.166,96.106,573.913,570.15,0.0
56463.0,STARLINK-6051,PAYLOAD,2024-04-30 22:36:34,14.98340064,0.000269,70.002,53.3886,273.9126,86.1726,0.00017747,2.026e-05,0.0,0 STARLINK-6051,1 56463U 23064R   24121.94206196  .00002026  00000-0  17747-3 0  9995,2 56463  70.0020  53.3886 0002690 273.9126  86.1726 14.98340064 53721,6950.162,96.106,573.896,570.157,0.0
56463.0,STARLINK-6051,PAYLOAD,2024-05-01 13:01:46,14.98346512,0.000264,70.0012,51.8736,255.8234,104.2632,-0.00012393,-1.572e-05,0.0,0 STARLINK-6051,1 56463U 23064R   24122.54289603 -.00001572  00000-0 -12393-3 0  9995,2 56463  70.0012  51.8736 0002640 255.8234 104.2632 14.98346512 53815,6950.142,96.106,573.842,570.172,0.0
56463.0,STARLINK-6051,PAYLOAD,2024-05-01 19:26:19,14.98332674,0.0002636,70.0012,51.2006,274.0668,86.019,0.00012347,1.381e-05,0.0,0 STARLINK-6051,1 56463U 23064R   24122.80994388  .00001381  00000-0  12347-3 0  9992,2 56463  70.0012  51.2006 0002636 274.0668  86.0190 14.98332674 54213,6950.185,96.107,573.882,570.218,0.0
56463.0,STARLINK-6051,PAYLOAD,2024-05-02 13:03:47,14.98334069,0.0002665,70.0012,49.3474,269.8855,90.1998,5.5321e-05,5.67e-06,0.0,0 STARLINK-6051,1 56463U 23064R   24123.54430068  .00000567  00000-0  55321-4 0  9999,2 56463  70.0012  49.3474 0002665 269.8855  90.1998 14.98334069 53965,6950.18,96.107,573.898,570.193,0.0
56463.0,STARLINK-6051,PAYLOAD,2024-05-02 21:04:27,14.98331199,0.0002659,70.0011,48.5059,269.4914,90.5941,0.00010597,1.172e-05,0.0,0 STARLINK-6051,1 56463U 23064R   24123.87810085  .00001172  00000-0  10597-3 0  9994,2 56463  70.0011  48.5059 0002659 269.4914  90.5941 14.98331199 54378,6950.189,96.107,573.902,570.206,0.0
